[{"OBJECT_NAME":"STARLINK-31414","OBJECT_ID":"2024-064W","EPOCH":"2026-03-09T00:38:48.543072","MEAN_MOTION":15.27569089,"ECCENTRICITY":0.00011966,"INCLINATION":43.0051,"RA_OF_ASC_NODE":59.98,"ARG_OF_PERICENTER":262.9326,"MEAN_ANOMALY":97.1389,"EPHEMERIS_TYPE":0,"CLASSIFICATION_TYPE":"U","NORAD_CAT_ID":59418,"ELEMENT_SET_NO":999,"REV_AT_EPOCH":10912,"BSTAR":-5.0833461e-5,"MEAN_MOTION_DOT":-1.66e-5,"MEAN_MOTION_DDOT":0},{"OBJECT_NAME":"HERMES-3","OBJECT_ID":"2025-052BR","EPOCH":"2026-03-09T22:30:01.073952","MEAN_MOTION":15.30039786,"ECCENTRICITY":0.00079928,"INCLINATION":97.3987,"RA_OF_ASC_NODE":324.6131,"ARG_OF_PERICENTER":112.9583,"MEAN_ANOMALY":247.2502,"EPHEMERIS_TYPE":0,"CLASSIFICATION_TYPE":"U","NORAD_CAT_ID":63835,"ELEMENT_SET_NO":999,"REV_AT_EPOCH":5486,"BSTAR":0.0006995793,"MEAN_MOTION_DOT":0.00020316,"MEAN_MOTION_DDOT":0}]
